COMMENT,ORIGINATOR,NORAD_CAT_ID,OBJECT_NAME,OBJECT_TYPE,CLASSIFICATION_TYPE,INTLDES,EPOCH,EPOCH_MICROSECONDS,MEAN_MOTION,ECCENTRICITY,INCLINATION,RA_OF_ASC_NODE,ARG_OF_PERICENTER,MEAN_ANOMALY,EPHEMERIS_TYPE,ELEMENT_SET_NO,REV_AT_EPOCH,BSTAR,MEAN_MOTION_DOT,MEAN_MOTION_DDOT,FILE,TLE_LINE0,TLE_LINE1,TLE_LINE2,OBJECT_ID,OBJECT_NUMBER,SEMIMAJOR_AXIS,PERIOD,APOGEE,PERIGEE,DECAYED,date
GENERATED VIA SPACETRACK.ORG API,18 SPCS,48904,SPACEBEE-111,PAYLOAD,U,21059AB,2023/3/4 8:48,308864,15.25616299,0.0009256,97.582,199.324,273.4086,86.6093,0,999,9343,0.0020888,0.0005341,0,3850922,0 SPACEBEE-111,1 48904U 21059AB  23063.36706376  .00053410  00000-0  20888-2 0  9995,2 48904  97.5820 199.3240 0009256 273.4086  86.6093 15.25616299 93435,2021-059AB,48904,6867.072,94.388,495.294,482.581,0,
GENERATED VIA SPACETRACK.ORG API,18 SPCS,48904,SPACEBEE-111,PAYLOAD,U,21059AB,2023/3/4 8:48,308864,15.25616299,0.0009256,97.582,199.324,273.4086,86.6093,0,999,9343,0.0020888,0.0005341,0,3851072,0 SPACEBEE-111,1 48904U 21059AB  23063.36706376  .00053410  00000-0  20888-2 0  9995,2 48904  97.5820 199.3240 0009256 273.4086  86.6093 15.25616299 93435,2021-059AB,48904,6867.072,94.388,495.294,482.581,0,
GENERATED VIA SPACETRACK.ORG API,18 SPCS,48904,SPACEBEE-111,PAYLOAD,U,21059AB,2023/3/4 19:49,218976,15.25654008,0.000932,97.5824,199.7896,271.9035,88.1135,0,999,9350,0.0017351,0.00044351,0,3851476,0 SPACEBEE-111,1 48904U 21059AB  23063.82618309  .00044351  00000-0  17351-2 0  9999,2 48904  97.5824 199.7896 0009320 271.9035  88.1135 15.25654008 93501,2021-059AB,48904,6866.959,94.386,495.224,482.424,0,
GENERATED VIA SPACETRACK.ORG API,18 SPCS,48904,SPACEBEE-111,PAYLOAD,U,21059AB,2023/3/5 8:25,518784,15.25707551,0.000937,97.5824,200.3216,270.1538,89.8626,0,999,9358,0.0019145,0.00049054,0,3851939,0 SPACEBEE-111,1 48904U 21059AB  23064.35087406  .00049054  00000-0  19145-2 0  9994,2 48904  97.5824 200.3216 0009370 270.1538  89.8626 15.25707551 93583,2021-059AB,48904,6866.799,94.382,495.098,482.229,0,
GENERATED VIA SPACETRACK.ORG API,18 SPCS,48904,SPACEBEE-111,PAYLOAD,U,21059AB,2023/3/5 21:00,237472,15.25762892,0.00094,97.5825,200.8536,268.3828,91.6332,0,999,9366,0.001999,0.00051324,0,3852060,0 SPACEBEE-111,1 48904U 21059AB  23064.87554673  .00051324  00000-0  19990-2 0  9997,2 48904  97.5825 200.8536 0009400 268.3828  91.6332 15.25762892 93662,2021-059AB,48904,6866.633,94.379,494.952,482.043,0,
GENERATED VIA SPACETRACK.ORG API,18 SPCS,48904,SPACEBEE-111,PAYLOAD,U,21059AB,2023/3/6 14:19,628096,15.25836105,0.0009428,97.583,201.5855,266.3997,93.6162,0,999,9377,0.0018303,0.00047063,0,3853141,0 SPACEBEE-111,1 48904U 21059AB  23065.59694014  .00047063  00000-0  18303-2 0  9993,2 48904  97.5830 201.5855 0009428 266.3997  93.6162 15.25836105 93779,2021-059AB,48904,6866.413,94.374,494.752,481.804,0,
GENERATED VIA SPACETRACK.ORG API,18 SPCS,48904,SPACEBEE-111,PAYLOAD,U,21059AB,2023/3/7 7:38,860800,15.25920907,0.0009414,97.583,202.3169,263.8129,96.2036,0,999,9388,0.0021999,0.00056799,0,3853655,0 SPACEBEE-111,1 48904U 21059AB  23066.31829700  .00056799  00000-0  21999-2 0  9997,2 48904  97.5830 202.3169 0009414 263.8129  96.2036 15.25920907 93885,2021-059AB,48904,6866.159,94.369,494.487,481.56,0,
GENERATED VIA SPACETRACK.ORG API,18 SPCS,48904,SPACEBEE-111,PAYLOAD,U,21059AB,2023/3/7 7:38,860800,15.25920907,0.0009414,97.583,202.3169,263.8129,96.2036,0,999,9388,0.0021999,0.00056799,0,3854072,0 SPACEBEE-111,1 48904U 21059AB  23066.31829700  .00056799  00000-0  21999-2 0  9997,2 48904  97.5830 202.3169 0009414 263.8129  96.2036 15.25920907 93885,2021-059AB,48904,6866.159,94.369,494.487,481.56,0,
GENERATED VIA SPACETRACK.ORG API,18 SPCS,48904,SPACEBEE-111,PAYLOAD,U,21059AB,2023/3/8 8:49,49088,15.26032561,0.0009334,97.5835,203.3807,260.0461,99.9724,0,999,9404,0.0018024,0.00046615,0,3854509,0 SPACEBEE-111,1 48904U 21059AB  23067.36747742  .00046615  00000-0  18024-2 0  9999,2 48904  97.5835 203.3807 0009334 260.0461  99.9724 15.26032561 94043,2021-059AB,48904,6865.824,94.362,494.097,481.28,0,
GENERATED VIA SPACETRACK.ORG API,18 SPCS,48904,SPACEBEE-111,PAYLOAD,U,21059AB,2023/3/8 8:49,49088,15.26032561,0.0009334,97.5835,203.3807,260.0461,99.9724,0,999,9404,0.0018024,0.00046615,0,3855077,0 SPACEBEE-111,1 48904U 21059AB  23067.36747742  .00046615  00000-0  18024-2 0  9999,2 48904  97.5835 203.3807 0009334 260.0461  99.9724 15.26032561 94043,2021-059AB,48904,6865.824,94.362,494.097,481.28,0,
GENERATED VIA SPACETRACK.ORG API,18 SPCS,48904,SPACEBEE-111,PAYLOAD,U,21059AB,2023/3/9 14:43,251168,15.26173434,0.0009377,97.5835,204.645,256.4766,103.5428,0,999,9423,0.0025929,0.00067566,0,3855666,0 SPACEBEE-111,1 48904U 21059AB  23068.61327837  .00067566  00000-0  25929-2 0  9997,2 48904  97.5835 204.6450 0009377 256.4766 103.5428 15.26173434 94234,2021-059AB,48904,6865.401,94.354,493.704,480.828,0,
GENERATED VIA SPACETRACK.ORG API,18 SPCS,48904,SPACEBEE-111,PAYLOAD,U,21059AB,2023/3/9 21:00,426176,15.26202493,0.0009436,97.5835,204.9111,255.8327,104.1863,0,999,9427,0.0022108,0.00057572,0,3855951,0 SPACEBEE-111,1 48904U 21059AB  23068.87553734  .00057572  00000-0  22108-2 0  9994,2 48904  97.5835 204.9111 0009436 255.8327 104.1863 15.26202493 94275,2021-059AB,48904,6865.314,94.352,493.657,480.701,0,
GENERATED VIA SPACETRACK.ORG API,18 SPCS,48904,SPACEBEE-111,PAYLOAD,U,21059AB,2023/3/10 14:19,661568,15.26284485,0.0009427,97.5839,205.6429,253.3416,106.6787,0,999,9438,0.0019654,0.00051257,0,3856787,0 SPACEBEE-111,1 48904U 21059AB  23069.59672062  .00051257  00000-0  19654-2 0  9996,2 48904  97.5839 205.6429 0009427 253.3416 106.6787 15.26284485 94386,2021-059AB,48904,6865.068,94.347,493.405,480.461,0,
GENERATED VIA SPACETRACK.ORG API,18 SPCS,48904,SPACEBEE-111,PAYLOAD,U,21059AB,2023/3/10 20:36,184608,15.26314175,0.0009418,97.5841,205.9093,253.4136,106.6068,0,999,9442,0.002024,0.00052846,0,3856975,0 SPACEBEE-111,1 48904U 21059AB  23069.85896047  .00052846  00000-0  20240-2 0  9994,2 48904  97.5841 205.9093 0009418 253.4136 106.6068 15.26314175 94426,2021-059AB,48904,6864.979,94.345,493.309,480.379,0,
GENERATED VIA SPACETRACK.ORG API,18 SPCS,48904,SPACEBEE-111,PAYLOAD,U,21059AB,2023/3/11 7:37,671648,15.26371043,0.0009414,97.5842,206.3749,251.338,108.6836,0,999,9449,0.0021278,0.00055676,0,3857466,0 SPACEBEE-111,1 48904U 21059AB  23070.31786657  .00055676  00000-0  21278-2 0  9998,2 48904  97.5842 206.3749 0009414 251.3380 108.6836 15.26371043 94493,2021-059AB,48904,6864.809,94.341,493.136,480.211,0,
GENERATED VIA SPACETRACK.ORG API,18 SPCS,48904,SPACEBEE-111,PAYLOAD,U,21059AB,2023/3/11 7:37,671648,15.26371043,0.0009414,97.5842,206.3749,251.338,108.6836,0,999,9449,0.0021278,0.00055676,0,3857581,0 SPACEBEE-111,1 48904U 21059AB  23070.31786657  .00055676  00000-0  21278-2 0  9998,2 48904  97.5842 206.3749 0009414 251.3380 108.6836 15.26371043 94493,2021-059AB,48904,6864.809,94.341,493.136,480.211,0,
GENERATED VIA SPACETRACK.ORG API,18 SPCS,48904,SPACEBEE-111,PAYLOAD,U,21059AB,2023/3/11 20:12,920960,15.26417015,0.0009349,97.5843,206.9076,249.8992,110.1241,0,999,9457,0.0017574,0.00045974,0,3857847,0 SPACEBEE-111,1 48904U 21059AB  23070.84231390  .00045974  00000-0  17574-2 0  9999,2 48904  97.5843 206.9076 0009349 249.8992 110.1241 15.26417015 94578,2021-059AB,48904,6864.671,94.339,492.953,480.118,0,
GENERATED VIA SPACETRACK.ORG API,18 SPCS,48904,SPACEBEE-111,PAYLOAD,U,21059AB,2023/3/12 4:04,269696,15.26452692,0.0009393,97.5841,207.2397,248.4432,111.5805,0,999,9462,0.0020494,0.00053739,0,3858015,0 SPACEBEE-111,1 48904U 21059AB  23071.17008414  .00053739  00000-0  20494-2 0  9998,2 48904  97.5841 207.2397 0009393 248.4432 111.5805 15.26452692 94626,2021-059AB,48904,6864.564,94.336,492.877,479.981,0,
GENERATED VIA SPACETRACK.ORG API,18 SPCS,48904,SPACEBEE-111,PAYLOAD,U,21059AB,2023/3/12 8:48,594336,15.26474802,0.0009391,97.5842,207.4392,247.5596,112.4648,0,999,9465,0.001927,0.00050537,0,3858534,0 SPACEBEE-111,1 48904U 21059AB  23071.36674299  .00050537  00000-0  19270-2 0  9992,2 48904  97.5842 207.4392 0009391 247.5596 112.4648 15.26474802 94658,2021-059AB,48904,6864.497,94.335,492.809,479.916,0,
GENERATED VIA SPACETRACK.ORG API,18 SPCS,48904,SPACEBEE-111,PAYLOAD,U,21059AB,2023/3/12 19:48,161408,15.26515931,0.0009376,97.584,207.9056,246.4461,113.5792,0,999,9472,0.0017493,0.00045898,0,3858743,0 SPACEBEE-111,1 48904U 21059AB  23071.82560372  .00045898  00000-0  17493-2 0  9998,2 48904  97.5840 207.9056 0009376 246.4461 113.5792 15.26515931 94729,2021-059AB,48904,6864.374,94.332,492.675,479.803,0,
GENERATED VIA SPACETRACK.ORG API,18 SPCS,48904,SPACEBEE-111,PAYLOAD,U,21059AB,2023/3/12 19:48,161408,15.26515931,0.0009376,97.584,207.9056,246.4461,113.5792,0,999,9472,0.0017493,0.00045898,0,3858851,0 SPACEBEE-111,1 48904U 21059AB  23071.82560372  .00045898  00000-0  17493-2 0  9998,2 48904  97.5840 207.9056 0009376 246.4461 113.5792 15.26515931 94729,2021-059AB,48904,6864.374,94.332,492.675,479.803,0,
GENERATED VIA SPACETRACK.ORG API,18 SPCS,48904,SPACEBEE-111,PAYLOAD,U,21059AB,2023/3/13 8:23,998272,15.26564168,0.0009478,97.5839,208.4376,244.2528,115.7732,0,999,9480,0.0014923,0.00039167,0,3859425,0 SPACEBEE-111,1 48904U 21059AB  23072.34999998  .00039167  00000-0  14923-2 0  9993,2 48904  97.5839 208.4376 0009478 244.2528 115.7732 15.26564168 94804,2021-059AB,48904,6864.23,94.329,492.6,479.589,0,
GENERATED VIA SPACETRACK.ORG API,18 SPCS,48904,SPACEBEE-111,PAYLOAD,U,21059AB,2023/3/13 14:41,430272,15.26584355,0.0009455,97.5839,208.7041,243.6073,116.4195,0,999,9484,0.0015941,0.00041884,0,3859631,0 SPACEBEE-111,1 48904U 21059AB  23072.61219248  .00041884  00000-0  15941-2 0  9996,2 48904  97.5839 208.7041 0009455 243.6073 116.4195 15.26584355 94844,2021-059AB,48904,6864.169,94.328,492.524,479.544,0,
